O3B FM10                
1 40348U 14083A   26064.81588118 -.00000026  00000+0  00000+0 0  9990
2 40348   0.0432 347.4987 0002684 355.6490  16.8377  5.00115238204726
O3B FM11                
1 40349U 14083B   26065.02849344 -.00000026  00000+0  00000+0 0  9996
2 40349   0.0567   0.4580 0003129 333.2733  26.2473  5.00115617204754
O3B FM12                
1 40350U 14083C   26062.45701119 -.00000028  00000+0  00000+0 0  9991
2 40350   0.0560 359.7796 0002643 337.6957  22.5061  5.00115945204637
O3B FM9                 
1 40351U 14083D   26065.08241741 -.00000026  00000+0  00000+0 0  9992
2 40351   0.0579   0.7211 0002732 342.9273  16.3373  5.00115916204918
ASTRA 2G                
1 40364U 14089A   26065.15932825  .00000144  00000+0  00000+0 0  9990
2 40364   0.0605 343.9894 0004486  47.1303 218.2864  1.00273178 40936
SES-9                   
1 41380U 16013A   26063.33003138 -.00000357  00000+0  00000+0 0  9999
2 41380   0.0427 307.7822 0001514  86.5529 354.8377  1.00271983 36384
SES-10                  
1 42432U 17017A   26063.34003264 -.00000284  00000+0  00000+0 0  9993
2 42432   0.0212  73.6872 0002699 276.1470 227.7463  1.00269378 32707
SES-15                  
1 42709U 17026A   26064.01780892  .00000050  00000+0  00000+0 0  9994
2 42709   0.0426 307.9199 0000713  39.5952  52.4724  1.00271060  6386
SES-11 (ECHOSTAR 105)   
1 42967U 17063A   26064.20584368 -.00000098  00000+0  00000+0 0  9995
2 42967   0.0386  71.4662 0002895 270.8534 149.7752  1.00272288 30688
SES-14                  
1 43175U 18012B   26064.85905593 -.00000285  00000+0  00000+0 0  9998
2 43175   0.0147  70.1946 0000941 282.6586  72.4822  1.00271895  5982
O3B FM15                
1 43231U 18024A   26064.94928999 -.00000026  00000+0  00000+0 0  9992
2 43231   0.0486   0.9069 0002688 340.0136  19.0639  5.00115727145868
O3B FM16                
1 43232U 18024B   26065.20155549 -.00000026  00000+0  00000+0 0  9996
2 43232   0.0450   2.8168 0002827 339.2721  17.8957  5.00115882145799
O3B FM14                
1 43233U 18024C   26065.04241878 -.00000026  00000+0  00000+0 0  9990
2 43233   0.0435   1.7188 0002846 343.7951  14.4724  5.00115671145789
O3B FM13                
1 43234U 18024D   26062.10991137 -.00000028  00000+0  00000+0 0  9997
2 43234   0.0485 331.6373 0004295 331.6147  56.6997  5.00115687145742
SES-12                  
1 43488U 18049A   26064.88730939  .00000000  00000+0  00000+0 0  9992
2 43488   0.0149 123.5370 0001907 181.2223 273.3020  1.00268550 28385
O3B FM20                
1 44112U 19020A   26065.06844034 -.00000026  00000+0  00000+0 0  9999
2 44112   0.0518 359.6891 0002801 333.4783  26.8126  5.00115498126413
O3B FM19                
1 44113U 19020B   26058.89895873 -.00000027  00000+0  00000+0 0  9991
2 44113   0.0602 347.5601 0004795 353.9797  18.4356  5.00116325125971
